CCSDS_OMM_VERS = 2.0
CREATION_DATE  = 
ORIGINATOR     = 

OBJECT_NAME    = HULIANWANG DIGUI-123
OBJECT_ID      = 2025-295E
CENTER_NAME    = EARTH
REF_FRAME      = TEME
TIME_SYSTEM    = UTC
MEAN_ELEMENT_THEORY = SGP/SGP4

EPOCH          = 2025-12-19T17:04:13.435104
MEAN_MOTION    = 14.25888152
ECCENTRICITY   = .0012481
INCLINATION    = 50.0061
RA_OF_ASC_NODE = 342.7964
ARG_OF_PERICENTER = 276.9830
MEAN_ANOMALY   = 82.9664

EPHEMERIS_TYPE = 0
CLASSIFICATION_TYPE = U
NORAD_CAT_ID   = 67063
ELEMENT_SET_NO = 999
REV_AT_EPOCH   = 111
BSTAR          = .11409E-3
MEAN_MOTION_DOT = .113E-5
MEAN_MOTION_DDOT = 0

CCSDS_OMM_VERS = 2.0
CREATION_DATE  = 
ORIGINATOR     = 

OBJECT_NAME    = HULIANWANG DIGUI-124
OBJECT_ID      = 2025-295F
CENTER_NAME    = EARTH
REF_FRAME      = TEME
TIME_SYSTEM    = UTC
MEAN_ELEMENT_THEORY = SGP/SGP4

EPOCH          = 2025-12-19T18:44:40.116768
MEAN_MOTION    = 14.25949421
ECCENTRICITY   = .0012089
INCLINATION    = 50.0035
RA_OF_ASC_NODE = 342.4852
ARG_OF_PERICENTER = 271.8822
MEAN_ANOMALY   = 88.0708

EPHEMERIS_TYPE = 0
CLASSIFICATION_TYPE = U
NORAD_CAT_ID   = 67064
ELEMENT_SET_NO = 999
REV_AT_EPOCH   = 112
BSTAR          = -.19275E-3
MEAN_MOTION_DOT = -.623E-5
MEAN_MOTION_DDOT = 0

CCSDS_OMM_VERS = 2.0
CREATION_DATE  = 
ORIGINATOR     = 

OBJECT_NAME    = HULIANWANG DIGUI-125
OBJECT_ID      = 2025-295G
CENTER_NAME    = EARTH
REF_FRAME      = TEME
TIME_SYSTEM    = UTC
MEAN_ELEMENT_THEORY = SGP/SGP4

EPOCH          = 2025-12-19T18:44:37.976640
MEAN_MOTION    = 14.25953854
ECCENTRICITY   = .0012279
INCLINATION    = 50.0012
RA_OF_ASC_NODE = 342.4835
ARG_OF_PERICENTER = 277.8662
MEAN_ANOMALY   = 82.0858

EPHEMERIS_TYPE = 0
CLASSIFICATION_TYPE = U
NORAD_CAT_ID   = 67065
ELEMENT_SET_NO = 999
REV_AT_EPOCH   = 112
BSTAR          = .10857E-3
MEAN_MOTION_DOT = .101E-5
MEAN_MOTION_DDOT = 0

CCSDS_OMM_VERS = 2.0
CREATION_DATE  = 
ORIGINATOR     = 

OBJECT_NAME    = HULIANWANG DIGUI-126
OBJECT_ID      = 2025-295H
CENTER_NAME    = EARTH
REF_FRAME      = TEME
TIME_SYSTEM    = UTC
MEAN_ELEMENT_THEORY = SGP/SGP4

EPOCH          = 2025-12-19T18:43:29.093376
MEAN_MOTION    = 14.26096808
ECCENTRICITY   = .0011439
INCLINATION    = 50.0014
RA_OF_ASC_NODE = 342.4785
ARG_OF_PERICENTER = 275.0106
MEAN_ANOMALY   = 84.9502

EPHEMERIS_TYPE = 0
CLASSIFICATION_TYPE = U
NORAD_CAT_ID   = 67066
ELEMENT_SET_NO = 999
REV_AT_EPOCH   = 112
BSTAR          = .10653E-3
MEAN_MOTION_DOT = .96E-6
MEAN_MOTION_DDOT = 0

CCSDS_OMM_VERS = 2.0
CREATION_DATE  = 
ORIGINATOR     = 

OBJECT_NAME    = HULIANWANG DIGUI-127
OBJECT_ID      = 2025-295J
CENTER_NAME    = EARTH
REF_FRAME      = TEME
TIME_SYSTEM    = UTC
MEAN_ELEMENT_THEORY = SGP/SGP4

EPOCH          = 2025-12-19T18:42:24.914592
MEAN_MOTION    = 14.26251183
ECCENTRICITY   = .0010875
INCLINATION    = 50.0053
RA_OF_ASC_NODE = 342.4819
ARG_OF_PERICENTER = 278.9010
MEAN_ANOMALY   = 81.0673

EPHEMERIS_TYPE = 0
CLASSIFICATION_TYPE = U
NORAD_CAT_ID   = 67067
ELEMENT_SET_NO = 999
REV_AT_EPOCH   = 112
BSTAR          = -.26867E-3
MEAN_MOTION_DOT = -.809E-5
MEAN_MOTION_DDOT = 0

CCSDS_OMM_VERS = 2.0
CREATION_DATE  = 
ORIGINATOR     = 

OBJECT_NAME    = CZ-12 R/B
OBJECT_ID      = 2025-295K
CENTER_NAME    = EARTH
REF_FRAME      = TEME
TIME_SYSTEM    = UTC
MEAN_ELEMENT_THEORY = SGP/SGP4

EPOCH          = 2025-12-19T11:47:42.665856
MEAN_MOTION    = 14.41129033
ECCENTRICITY   = .0056889
INCLINATION    = 49.9945
RA_OF_ASC_NODE = 342.9744
ARG_OF_PERICENTER = 160.1053
MEAN_ANOMALY   = 200.2102

EPHEMERIS_TYPE = 0
CLASSIFICATION_TYPE = U
NORAD_CAT_ID   = 67068
ELEMENT_SET_NO = 999
REV_AT_EPOCH   = 108
BSTAR          = .15271E-4
MEAN_MOTION_DOT = -.118E-5
MEAN_MOTION_DDOT = 0

CCSDS_OMM_VERS = 2.0
CREATION_DATE  = 
ORIGINATOR     = 

OBJECT_NAME    = XIWANG-5 02
OBJECT_ID      = 2025-296A
CENTER_NAME    = EARTH
REF_FRAME      = TEME
TIME_SYSTEM    = UTC
MEAN_ELEMENT_THEORY = SGP/SGP4

EPOCH          = 2025-12-19T16:21:31.212000
MEAN_MOTION    = 15.16806567
ECCENTRICITY   = .0014495
INCLINATION    = 41.3526
RA_OF_ASC_NODE = 61.9750
ARG_OF_PERICENTER = 74.5676
MEAN_ANOMALY   = 285.6746

EPHEMERIS_TYPE = 0
CLASSIFICATION_TYPE = U
NORAD_CAT_ID   = 67069
ELEMENT_SET_NO = 999
REV_AT_EPOCH   = 101
BSTAR          = .43858E-3
MEAN_MOTION_DOT = .8613E-4
MEAN_MOTION_DDOT = 0

CCSDS_OMM_VERS = 2.0
CREATION_DATE  = 
ORIGINATOR     = 

OBJECT_NAME    = DEAR-5
OBJECT_ID      = 2025-296B
CENTER_NAME    = EARTH
REF_FRAME      = TEME
TIME_SYSTEM    = UTC
MEAN_ELEMENT_THEORY = SGP/SGP4

EPOCH          = 2025-12-19T16:20:25.579104
MEAN_MOTION    = 15.16874808
ECCENTRICITY   = .0016066
INCLINATION    = 41.3553
RA_OF_ASC_NODE = 61.9711
ARG_OF_PERICENTER = 75.9678
MEAN_ANOMALY   = 284.2929

EPHEMERIS_TYPE = 0
CLASSIFICATION_TYPE = U
NORAD_CAT_ID   = 67070
ELEMENT_SET_NO = 999
REV_AT_EPOCH   = 100
BSTAR          = .23707E-3
MEAN_MOTION_DOT = .4569E-4
MEAN_MOTION_DDOT = 0

CCSDS_OMM_VERS = 2.0
CREATION_DATE  = 
ORIGINATOR     = 

OBJECT_NAME    = KZ-11 R/B
OBJECT_ID      = 2025-296C
CENTER_NAME    = EARTH
REF_FRAME      = TEME
TIME_SYSTEM    = UTC
MEAN_ELEMENT_THEORY = SGP/SGP4

EPOCH          = 2025-12-19T13:41:34.586880
MEAN_MOTION    = 14.97990910
ECCENTRICITY   = .0633659
INCLINATION    = 41.3275
RA_OF_ASC_NODE = 65.0444
ARG_OF_PERICENTER = 1.3602
MEAN_ANOMALY   = 358.8773

EPHEMERIS_TYPE = 0
CLASSIFICATION_TYPE = U
NORAD_CAT_ID   = 67071
ELEMENT_SET_NO = 999
REV_AT_EPOCH   = 96
BSTAR          = .52382E-3
MEAN_MOTION_DOT = .6216299E-1
MEAN_MOTION_DDOT = .62939E-5

CCSDS_OMM_VERS = 2.0
CREATION_DATE  = 
ORIGINATOR     = 

OBJECT_NAME    = ELECTRON R/B
OBJECT_ID      = 2025-297A
CENTER_NAME    = EARTH
REF_FRAME      = TEME
TIME_SYSTEM    = UTC
MEAN_ELEMENT_THEORY = SGP/SGP4

EPOCH          = 2025-12-19T17:40:02.338752
MEAN_MOTION    = 15.91175695
ECCENTRICITY   = .0189979
INCLINATION    = 97.4704
RA_OF_ASC_NODE = 141.7120
ARG_OF_PERICENTER = 207.3211
MEAN_ANOMALY   = 151.7973

EPHEMERIS_TYPE = 0
CLASSIFICATION_TYPE = U
NORAD_CAT_ID   = 67072
ELEMENT_SET_NO = 999
REV_AT_EPOCH   = 89
BSTAR          = .1321E-2
MEAN_MOTION_DOT = .249772E-1
MEAN_MOTION_DDOT = .22171E-5

CCSDS_OMM_VERS = 2.0
CREATION_DATE  = 
ORIGINATOR     = 

OBJECT_NAME    = RAISE-4
OBJECT_ID      = 2025-297B
CENTER_NAME    = EARTH
REF_FRAME      = TEME
TIME_SYSTEM    = UTC
MEAN_ELEMENT_THEORY = SGP/SGP4

EPOCH          = 2025-12-19T06:31:31.025568
MEAN_MOTION    = 15.07177511
ECCENTRICITY   = .00114177
INCLINATION    = 97.4853
RA_OF_ASC_NODE = 140.6452
ARG_OF_PERICENTER = 296.9674
MEAN_ANOMALY   = 63.0387

EPHEMERIS_TYPE = 0
CLASSIFICATION_TYPE = U
NORAD_CAT_ID   = 67073
ELEMENT_SET_NO = 999
REV_AT_EPOCH   = 77
BSTAR          = .22353741E-3
MEAN_MOTION_DOT = .3306E-4
MEAN_MOTION_DDOT = 0

CCSDS_OMM_VERS = 2.0
CREATION_DATE  = 
ORIGINATOR     = 

OBJECT_NAME    = ELECTRON KICK STAGE R/B
OBJECT_ID      = 2025-297C
CENTER_NAME    = EARTH
REF_FRAME      = TEME
TIME_SYSTEM    = UTC
MEAN_ELEMENT_THEORY = SGP/SGP4

EPOCH          = 2025-12-18T23:41:00.563712
MEAN_MOTION    = 15.55985409
ECCENTRICITY   = .02022582
INCLINATION    = 97.4818
RA_OF_ASC_NODE = 140.7335
ARG_OF_PERICENTER = 246.7920
MEAN_ANOMALY   = 111.1921

EPHEMERIS_TYPE = 0
CLASSIFICATION_TYPE = U
NORAD_CAT_ID   = 67074
ELEMENT_SET_NO = 999
REV_AT_EPOCH   = 75
BSTAR          = .14322456E-2
MEAN_MOTION_DOT = .259375E-2
MEAN_MOTION_DDOT = .19664913E-4

